{
  "type": "FeatureCollection",
  "features": [
    {
      "type": "Feature",
      "properties": {
        "norad_id": 33791,
        "name": "COSMOS 2251 DEB",
        "group": "cosmos-2251-debris",
        "lat": -74.12521575746372,
        "lon": -50.306384002927594,
        "alt_km": 735.8568793664435,
        "timestamp": "2025-12-09T07:41:33.603991+00:00",
        "meta_object_name": "COSMOS 2251 DEB",
        "meta_object_id": "1993-036AG",
        "meta_epoch": "2025-12-08T14:19:00.610176",
        "meta_mean_motion": 14.43091638,
        "meta_eccentricity": 0.0030582,
        "meta_inclination": 74.1752,
        "meta_ra_of_asc_node": 45.211,
        "meta_arg_of_pericenter": 243.1756,
        "meta_mean_anomaly": 225.811,
        "meta_ephemeris_type": 0,
        "meta_classification_type": "U",
        "meta_norad_cat_id": 33791,
        "meta_element_set_no": 999,
        "meta_rev_at_epoch": 87992,
        "meta_bstar": 0.0012232,
        "meta_mean_motion_dot": 4.103e-05,
        "meta_mean_motion_ddot": 0,
        "tle_line1": "1 33791U 93036AG  25342.59653484  .00004103  00000+0  12232-2 0  9993",
        "tle_line2": "2 33791  74.1752  45.2110 0030582 243.1756 225.8110 14.43091638879923"
      },
      "geometry": {
        "type": "Point",
        "coordinates": [
          -50.306384002927594,
          -74.12521575746372
        ]
      }
    },
    {
      "type": "Feature",
      "properties": {
        "norad_id": 33792,
        "name": "COSMOS 2251 DEB",
        "group": "cosmos-2251-debris",
        "lat": 68.35602926886206,
        "lon": 37.505061437610465,
        "alt_km": 778.3552994070678,
        "timestamp": "2025-12-09T07:41:33.604002+00:00",
        "meta_object_name": "COSMOS 2251 DEB",
        "meta_object_id": "1993-036AH",
        "meta_epoch": "2025-12-08T12:16:56.464896",
        "meta_mean_motion": 13.45813832,
        "meta_eccentricity": 0.04269038,
        "meta_inclination": 73.9008,
        "meta_ra_of_asc_node": 352.0961,
        "meta_arg_of_pericenter": 57.5358,
        "meta_mean_anomaly": 59.3024,
        "meta_ephemeris_type": 0,
        "meta_classification_type": "U",
        "meta_norad_cat_id": 33792,
        "meta_element_set_no": 999,
        "meta_rev_at_epoch": 82385,
        "meta_bstar": 0.001165583,
        "meta_mean_motion_dot": 1.187e-05,
        "meta_mean_motion_ddot": 0,
        "tle_line1": "1 33792U 93036AH  25342.51176464  .00001187  00000+0  11656-2 0  9992",
        "tle_line2": "2 33792  73.9008 352.0961 0426903  57.5358  59.3024 13.45813832823853"
      },
      "geometry": {
        "type": "Point",
        "coordinates": [
          37.505061437610465,
          68.35602926886206
        ]
      }
    },
    {
      "type": "Feature",
      "properties": {
        "norad_id": 33793,
        "name": "COSMOS 2251 DEB",
        "group": "cosmos-2251-debris",
        "lat": -17.030208330109925,
        "lon": 151.08351609951634,
        "alt_km": 757.9852339165991,
        "timestamp": "2025-12-09T07:41:33.604013+00:00",
        "meta_object_name": "COSMOS 2251 DEB",
        "meta_object_id": "1993-036AJ",
        "meta_epoch": "2025-12-08T13:32:25.769760",
        "meta_mean_motion": 14.27701967,
        "meta_eccentricity": 0.0078353,
        "meta_inclination": 73.9804,
        "meta_ra_of_asc_node": 157.5063,
        "meta_arg_of_pericenter": 308.4364,
        "meta_mean_anomaly": 107.571,
        "meta_ephemeris_type": 0,
        "meta_classification_type": "U",
        "meta_norad_cat_id": 33793,
        "meta_element_set_no": 999,
        "meta_rev_at_epoch": 87147,
        "meta_bstar": 0.0011125,
        "meta_mean_motion_dot": 2.809e-05,
        "meta_mean_motion_ddot": 0,
        "tle_line1": "1 33793U 93036AJ  25342.56418715  .00002809  00000+0  11125-2 0  9999",
        "tle_line2": "2 33793  73.9804 157.5063 0078353 308.4364 107.5710 14.27701967871471"
      },
      "geometry": {
        "type": "Point",
        "coordinates": [
          151.08351609951634,
          -17.030208330109925
        ]
      }
    },
    {
      "type": "Feature",
      "properties": {
        "norad_id": 33795,
        "name": "COSMOS 2251 DEB",
        "group": "cosmos-2251-debris",
        "lat": 49.42019819844862,
        "lon": 103.27719000163765,
        "alt_km": 555.5994955971755,
        "timestamp": "2025-12-09T07:41:33.604024+00:00",
        "meta_object_name": "COSMOS 2251 DEB",
        "meta_object_id": "1993-036AL",
        "meta_epoch": "2025-12-08T17:38:57.204384",
        "meta_mean_motion": 15.05278416,
        "meta_eccentricity": 0.00321036,
        "meta_inclination": 74.0331,
        "meta_ra_of_asc_node": 84.9465,
        "meta_arg_of_pericenter": 170.1082,
        "meta_mean_anomaly": 312.9047,
        "meta_ephemeris_type": 0,
        "meta_classification_type": "U",
        "meta_norad_cat_id": 33795,
        "meta_element_set_no": 999,
        "meta_rev_at_epoch": 89961,
        "meta_bstar": 0.0019301086,
        "meta_mean_motion_dot": 0.00027988,
        "meta_mean_motion_ddot": 0,
        "tle_line1": "1 33795U 93036AL  25342.73538431  .00027988  00000+0  19301-2 0  9997",
        "tle_line2": "2 33795  74.0331  84.9465 0032103 170.1082 312.9047 15.05278416899619"
      },
      "geometry": {
        "type": "Point",
        "coordinates": [
          103.27719000163765,
          49.42019819844862
        ]
      }
    },
    {
      "type": "Feature",
      "properties": {
        "norad_id": 33797,
        "name": "COSMOS 2251 DEB",
        "group": "cosmos-2251-debris",
        "lat": 72.65799167419584,
        "lon": 155.11513493657048,
        "alt_km": 656.8611259718527,
        "timestamp": "2025-12-09T07:41:33.604035+00:00",
        "meta_object_name": "COSMOS 2251 DEB",
        "meta_object_id": "1993-036AN",
        "meta_epoch": "2025-12-08T15:21:19.063008",
        "meta_mean_motion": 14.57824045,
        "meta_eccentricity": 0.0060881,
        "meta_inclination": 74.048,
        "meta_ra_of_asc_node": 42.751,
        "meta_arg_of_pericenter": 131.873,
        "meta_mean_anomaly": 354.2772,
        "meta_ephemeris_type": 0,
        "meta_classification_type": "U",
        "meta_norad_cat_id": 33797,
        "meta_element_set_no": 999,
        "meta_rev_at_epoch": 88925,
        "meta_bstar": 0.00075502,
        "meta_mean_motion_dot": 3.517e-05,
        "meta_mean_motion_ddot": 0,
        "tle_line1": "1 33797U 93036AN  25342.63980397  .00003517  00000+0  75502-3 0  9998",
        "tle_line2": "2 33797  74.0480  42.7510 0060881 131.8730 354.2772 14.57824045889251"
      },
      "geometry": {
        "type": "Point",
        "coordinates": [
          155.11513493657048,
          72.65799167419584
        ]
      }
    },
    {
      "type": "Feature",
      "properties": {
        "norad_id": 33798,
        "name": "COSMOS 2251 DEB",
        "group": "cosmos-2251-debris",
        "lat": 39.63538507595131,
        "lon": -51.449232157732155,
        "alt_km": 778.2666088198839,
        "timestamp": "2025-12-09T07:41:33.604045+00:00",
        "meta_object_name": "COSMOS 2251 DEB",
        "meta_object_id": "1993-036AP",
        "meta_epoch": "2025-12-08T21:38:09.027168",
        "meta_mean_motion": 14.44606454,
        "meta_eccentricity": 0.00925172,
        "meta_inclination": 74.0278,
        "meta_ra_of_asc_node": 143.0544,
        "meta_arg_of_pericenter": 265.2581,
        "meta_mean_anomaly": 215.6101,
        "meta_ephemeris_type": 0,
        "meta_classification_type": "U",
        "meta_norad_cat_id": 33798,
        "meta_element_set_no": 999,
        "meta_rev_at_epoch": 88538,
        "meta_bstar": 0.0002510775,
        "meta_mean_motion_dot": 8.86e-06,
        "meta_mean_motion_ddot": 0,
        "tle_line1": "1 33798U 93036AP  25342.90149337  .00000886  00000+0  25108-3 0  9993",
        "tle_line2": "2 33798  74.0278 143.0544 0092517 265.2581 215.6101 14.44606454885380"
      },
      "geometry": {
        "type": "Point",
        "coordinates": [
          -51.449232157732155,
          39.63538507595131
        ]
      }
    },
    {
      "type": "Feature",
      "properties": {
        "norad_id": 33799,
        "name": "COSMOS 2251 DEB",
        "group": "cosmos-2251-debris",
        "lat": -44.35815027506519,
        "lon": 72.26083821555788,
        "alt_km": 652.1194721729244,
        "timestamp": "2025-12-09T07:41:33.604056+00:00",
        "meta_object_name": "COSMOS 2251 DEB",
        "meta_object_id": "1993-036AQ",
        "meta_epoch": "2025-12-08T18:00:12.146112",
        "meta_mean_motion": 14.79481859,
        "meta_eccentricity": 0.00237886,
        "meta_inclination": 74.0324,
        "meta_ra_of_asc_node": 89.6423,
        "meta_arg_of_pericenter": 161.7308,
        "meta_mean_anomaly": 354.8729,
        "meta_ephemeris_type": 0,
        "meta_classification_type": "U",
        "meta_norad_cat_id": 33799,
        "meta_element_set_no": 999,
        "meta_rev_at_epoch": 88752,
        "meta_bstar": 0.0017589241,
        "meta_mean_motion_dot": 0.000132,
        "meta_mean_motion_ddot": 0,
        "tle_line1": "1 33799U 93036AQ  25342.75014058  .00013200  00000+0  17589-2 0  9995",
        "tle_line2": "2 33799  74.0324  89.6423 0023788 161.7308 354.8729 14.79481859887523"
      },
      "geometry": {
        "type": "Point",
        "coordinates": [
          72.26083821555788,
          -44.35815027506519
        ]
      }
    }
  ]
}